[{"OBJECT_NAME":"ALOS (DAICHI)","OBJECT_ID":"2006-002A","EPOCH":"2026-03-29T02:36:28.813248","MEAN_MOTION":14.69868332,"ECCENTRICITY":8.78e-5,"INCLINATION":98.1248,"RA_OF_ASC_NODE":43.9714,"ARG_OF_PERICENTER":107.7637,"MEAN_ANOMALY":252.3665,"EPHEMERIS_TYPE":0,"CLASSIFICATION_TYPE":"U","NORAD_CAT_ID":28931,"ELEMENT_SET_NO":999,"REV_AT_EPOCH":7633,"BSTAR":0.00025667,"MEAN_MOTION_DOT":1.485e-5,"MEAN_MOTION_DDOT":0},{"OBJECT_NAME":"H-2A R/B","OBJECT_ID":"2006-002B","EPOCH":"2026-03-29T03:19:18.524640","MEAN_MOTION":15.16850001,"ECCENTRICITY":0.0052422,"INCLINATION":98.2445,"RA_OF_ASC_NODE":236.8455,"ARG_OF_PERICENTER":174.4683,"MEAN_ANOMALY":185.7138,"EPHEMERIS_TYPE":0,"CLASSIFICATION_TYPE":"U","NORAD_CAT_ID":28932,"ELEMENT_SET_NO":999,"REV_AT_EPOCH":9738,"BSTAR":0.00074856,"MEAN_MOTION_DOT":0.00015197,"MEAN_MOTION_DDOT":0},{"OBJECT_NAME":"RESURS-DK 1","OBJECT_ID":"2006-021A","EPOCH":"2026-03-28T23:24:06.485184","MEAN_MOTION":15.12864225,"ECCENTRICITY":0.0001231,"INCLINATION":69.9338,"RA_OF_ASC_NODE":187.136,"ARG_OF_PERICENTER":52.534,"MEAN_ANOMALY":307.5938,"EPHEMERIS_TYPE":0,"CLASSIFICATION_TYPE":"U","NORAD_CAT_ID":29228,"ELEMENT_SET_NO":999,"REV_AT_EPOCH":9044,"BSTAR":0.00015424,"MEAN_MOTION_DOT":2.612e-5,"MEAN_MOTION_DDOT":0},{"OBJECT_NAME":"CZ-4B R/B","OBJECT_ID":"2006-046C","EPOCH":"2026-03-29T03:12:43.629120","MEAN_MOTION":15.17096769,"ECCENTRICITY":0.0032763,"INCLINATION":97.556,"RA_OF_ASC_NODE":132.9891,"ARG_OF_PERICENTER":197.5218,"MEAN_ANOMALY":162.4888,"EPHEMERIS_TYPE":0,"CLASSIFICATION_TYPE":"U","NORAD_CAT_ID":29507,"ELEMENT_SET_NO":999,"REV_AT_EPOCH":6299,"BSTAR":0.00029185,"MEAN_MOTION_DOT":5.792e-5,"MEAN_MOTION_DDOT":0},{"OBJECT_NAME":"CZ-2C R/B","OBJECT_ID":"2007-010B","EPOCH":"2026-03-29T04:05:01.872384","MEAN_MOTION":14.20253309,"ECCENTRICITY":0.0058103,"INCLINATION":98.3998,"RA_OF_ASC_NODE":200.4745,"ARG_OF_PERICENTER":236.9018,"MEAN_ANOMALY":122.6573,"EPHEMERIS_TYPE":0,"CLASSIFICATION_TYPE":"U","NORAD_CAT_ID":31114,"ELEMENT_SET_NO":999,"REV_AT_EPOCH":98248,"BSTAR":9.6312e-5,"MEAN_MOTION_DOT":1.68e-6,"MEAN_MOTION_DDOT":0},{"OBJECT_NAME":"COSMO-SKYMED 1","OBJECT_ID":"2007-023A","EPOCH":"2026-03-29T04:29:43.808640","MEAN_MOTION":14.96674645,"ECCENTRICITY":9.9e-5,"INCLINATION":97.8874,"RA_OF_ASC_NODE":279.3786,"ARG_OF_PERICENTER":100.681,"MEAN_ANOMALY":259.4522,"EPHEMERIS_TYPE":0,"CLASSIFICATION_TYPE":"U","NORAD_CAT_ID":31598,"ELEMENT_SET_NO":999,"REV_AT_EPOCH":1782,"BSTAR":0.00039949,"MEAN_MOTION_DOT":4.5e-5,"MEAN_MOTION_DDOT":0},{"OBJECT_NAME":"COSMOS 2428","OBJECT_ID":"2007-029A","EPOCH":"2026-03-29T05:10:38.663328","MEAN_MOTION":14.12948452,"ECCENTRICITY":0.00097,"INCLINATION":70.9433,"RA_OF_ASC_NODE":162.3626,"ARG_OF_PERICENTER":256.9361,"MEAN_ANOMALY":103.0677,"EPHEMERIS_TYPE":0,"CLASSIFICATION_TYPE":"U","NORAD_CAT_ID":31792,"ELEMENT_SET_NO":999,"REV_AT_EPOCH":96685,"BSTAR":1.2148e-5,"MEAN_MOTION_DOT":-2.5e-7,"MEAN_MOTION_DDOT":0},{"OBJECT_NAME":"SL-16 R/B","OBJECT_ID":"2007-029B","EPOCH":"2026-03-29T05:15:04.747680","MEAN_MOTION":14.14843564,"ECCENTRICITY":0.0002734,"INCLINATION":70.9747,"RA_OF_ASC_NODE":131.3347,"ARG_OF_PERICENTER":277.8941,"MEAN_ANOMALY":145.2253,"EPHEMERIS_TYPE":0,"CLASSIFICATION_TYPE":"U","NORAD_CAT_ID":31793,"ELEMENT_SET_NO":999,"REV_AT_EPOCH":96813,"BSTAR":3.573e-5,"MEAN_MOTION_DOT":2.1e-7,"MEAN_MOTION_DDOT":0},{"OBJECT_NAME":"KORONAS-FOTON","OBJECT_ID":"2009-003A","EPOCH":"2026-03-29T05:05:56.109408","MEAN_MOTION":15.43844729,"ECCENTRICITY":0.0011767,"INCLINATION":82.4275,"RA_OF_ASC_NODE":255.5703,"ARG_OF_PERICENTER":86.4859,"MEAN_ANOMALY":273.7734,"EPHEMERIS_TYPE":0,"CLASSIFICATION_TYPE":"U","NORAD_CAT_ID":33504,"ELEMENT_SET_NO":999,"REV_AT_EPOCH":94875,"BSTAR":0.00043009,"MEAN_MOTION_DOT":0.000196,"MEAN_MOTION_DDOT":0},{"OBJECT_NAME":"CZ-2C R/B","OBJECT_ID":"2011-030B","EPOCH":"2026-03-28T20:42:13.557024","MEAN_MOTION":14.81288346,"ECCENTRICITY":0.0051114,"INCLINATION":97.8576,"RA_OF_ASC_NODE":44.7469,"ARG_OF_PERICENTER":288.6356,"MEAN_ANOMALY":124.8699,"EPHEMERIS_TYPE":0,"CLASSIFICATION_TYPE":"U","NORAD_CAT_ID":37731,"ELEMENT_SET_NO":999,"REV_AT_EPOCH":79293,"BSTAR":0.00020784075,"MEAN_MOTION_DOT":1.602e-5,"MEAN_MOTION_DDOT":0},{"OBJECT_NAME":"H-2A R/B","OBJECT_ID":"2012-025E","EPOCH":"2026-03-28T20:49:22.599552","MEAN_MOTION":14.95301389,"ECCENTRICITY":0.00427481,"INCLINATION":98.4762,"RA_OF_ASC_NODE":56.4548,"ARG_OF_PERICENTER":249.4379,"MEAN_ANOMALY":110.2251,"EPHEMERIS_TYPE":0,"CLASSIFICATION_TYPE":"U","NORAD_CAT_ID":38341,"ELEMENT_SET_NO":999,"REV_AT_EPOCH":75108,"BSTAR":0.0003420113,"MEAN_MOTION_DOT":3.767e-5,"MEAN_MOTION_DDOT":0},{"OBJECT_NAME":"SHIJIAN-16 (SJ-16)","OBJECT_ID":"2013-057A","EPOCH":"2026-03-29T04:53:33.058176","MEAN_MOTION":14.9242436,"ECCENTRICITY":0.0015254,"INCLINATION":74.9724,"RA_OF_ASC_NODE":148.1476,"ARG_OF_PERICENTER":61.7079,"MEAN_ANOMALY":298.5647,"EPHEMERIS_TYPE":0,"CLASSIFICATION_TYPE":"U","NORAD_CAT_ID":39358,"ELEMENT_SET_NO":999,"REV_AT_EPOCH":67441,"BSTAR":0.00022258,"MEAN_MOTION_DOT":2.257e-5,"MEAN_MOTION_DDOT":0},{"OBJECT_NAME":"SL-4 R/B","OBJECT_ID":"2014-021B","EPOCH":"2026-03-28T18:40:45.287616","MEAN_MOTION":15.39833982,"ECCENTRICITY":0.00955676,"INCLINATION":51.6044,"RA_OF_ASC_NODE":244.1089,"ARG_OF_PERICENTER":172.5582,"MEAN_ANOMALY":187.6847,"EPHEMERIS_TYPE":0,"CLASSIFICATION_TYPE":"U","NORAD_CAT_ID":39679,"ELEMENT_SET_NO":999,"REV_AT_EPOCH":65921,"BSTAR":0.0004770132,"MEAN_MOTION_DOT":0.00022219,"MEAN_MOTION_DDOT":0},{"OBJECT_NAME":"ALOS-2","OBJECT_ID":"2014-029A","EPOCH":"2026-03-29T04:43:39.592992","MEAN_MOTION":14.79445822,"ECCENTRICITY":0.0001909,"INCLINATION":97.9187,"RA_OF_ASC_NODE":186.5103,"ARG_OF_PERICENTER":102.7133,"MEAN_ANOMALY":257.4292,"EPHEMERIS_TYPE":0,"CLASSIFICATION_TYPE":"U","NORAD_CAT_ID":39766,"ELEMENT_SET_NO":999,"REV_AT_EPOCH":63975,"BSTAR":0.00017327,"MEAN_MOTION_DOT":1.242e-5,"MEAN_MOTION_DDOT":0},{"OBJECT_NAME":"YAOGAN-29","OBJECT_ID":"2015-069A","EPOCH":"2026-03-29T03:48:44.457696","MEAN_MOTION":14.83014843,"ECCENTRICITY":4.62e-5,"INCLINATION":98.0121,"RA_OF_ASC_NODE":116.6387,"ARG_OF_PERICENTER":357.2368,"MEAN_ANOMALY":2.8842,"EPHEMERIS_TYPE":0,"CLASSIFICATION_TYPE":"U","NORAD_CAT_ID":41038,"ELEMENT_SET_NO":999,"REV_AT_EPOCH":55876,"BSTAR":5.3859e-5,"MEAN_MOTION_DOT":3.84e-6,"MEAN_MOTION_DDOT":0},{"OBJECT_NAME":"ASTRO-H (HITOMI)","OBJECT_ID":"2016-012A","EPOCH":"2026-03-29T01:37:11.036640","MEAN_MOTION":15.10124724,"ECCENTRICITY":0.000964,"INCLINATION":30.9988,"RA_OF_ASC_NODE":231.4855,"ARG_OF_PERICENTER":167.0223,"MEAN_ANOMALY":193.0664,"EPHEMERIS_TYPE":0,"CLASSIFICATION_TYPE":"U","NORAD_CAT_ID":41337,"ELEMENT_SET_NO":999,"REV_AT_EPOCH":55516,"BSTAR":0.00020681,"MEAN_MOTION_DOT":3.553e-5,"MEAN_MOTION_DDOT":0},{"OBJECT_NAME":"HXMT (HUIYAN)","OBJECT_ID":"2017-034A","EPOCH":"2026-03-28T23:54:44.135424","MEAN_MOTION":15.17702674,"ECCENTRICITY":0.0031866,"INCLINATION":43.0136,"RA_OF_ASC_NODE":269.3163,"ARG_OF_PERICENTER":354.2354,"MEAN_ANOMALY":5.8124,"EPHEMERIS_TYPE":0,"CLASSIFICATION_TYPE":"U","NORAD_CAT_ID":42758,"ELEMENT_SET_NO":999,"REV_AT_EPOCH":48547,"BSTAR":0.00029619,"MEAN_MOTION_DOT":5.92e-5,"MEAN_MOTION_DDOT":0}]
